BEESAT-4                
1 41619U 16040W   22152.88590468  .00009629  00000+0  32582-3 0  9990
2 41619  97.2174 203.9347 0010550 163.4753 196.6835 15.30757418318349
CAS-2T & KS-1Q          
1 41847U 16066G   22152.90151246  .00000340  00000+0  62230-4 0  9996
2 41847  98.5514 217.5870 0362717 256.3626  99.6932 14.38563556292113
NAYIF-1 (EO-88)         
1 42017U 17008BX  22152.91304485  .00010658  00000+0  32391-3 0  9996
2 42017  97.2692 219.2567 0003383 304.3746  55.7177 15.34223779294692
ZHUHAI-1 02 (CAS-4B)    
1 42759U 17034B   22152.85076597  .00004199  00000+0  25416-3 0  9994
2 42759  43.0180  58.6936 0008370 200.9640 236.1758 15.11811686273991
ZHUHAI-1 01 (CAS-4A)    
1 42761U 17034D   22152.81948201  .00003910  00000+0  23696-3 0  9991
2 42761  43.0177  57.6629 0009011 201.6442 225.0165 15.11902757273998
MAX VALIER SAT          
1 42778U 17036P   22152.92269983  .00006132  00000+0  23519-3 0  9999
2 42778  97.2054 194.5589 0011396  31.9123 328.2805 15.26784782274536
RADFXSAT (FOX-1B)       
1 43017U 17073E   22152.49775453  .00001790  00000+0  14004-3 0  9997
2 43017  97.6769  47.3426 0247526 239.9351 117.7107 14.81326375244751
FOX-1D (AO-92)          
1 43137U 18004AC  22152.65316904  .00007089  00000+0  25297-3 0  9998
2 43137  97.3688 227.9544 0008840  66.1139 294.1026 15.29147656243931
DIWATA-2B               
1 43678U 18084H   22152.82493645  .00000902  00000+0  94408-4 0  9991
2 43678  97.9671 285.9080 0009607 345.4681  14.6233 14.92152388195528
ES'HAIL 2               
1 43700U 18090A   22152.66193216  .00000154  00000+0  00000+0 0  9996
2 43700   0.0123 297.9234 0000862 144.8080  71.5172  1.00275690 12870
FOX-1CLIFF (AO-95)      
1 43770U 18099N   22152.60873052  .00002242  00000+0  20273-3 0  9997
2 43770  97.6217 219.3700 0013117 335.6133  24.4466 14.96379001190640
ITASAT 1                
1 43786U 18099AE  22152.60361090  .00002181  00000+0  19655-3 0  9992
2 43786  97.6238 220.2746 0013547 327.2066  32.8313 14.96530901190686
JY1SAT (JO-97)          
1 43803U 18099AX  22152.42598403  .00001204  00000+0  10944-3 0  9999
2 43803  97.6202 219.8533 0013759 326.4364  33.5985 14.97011192190671
UWE-4                   
1 43880U 18111E   22152.63769264  .00001891  00000+0  16446-3 0  9992
2 43880  97.6712  59.2250 0012900  23.0388 337.1411 14.98093045187331
NEXUS (FO-99)           
1 43937U 19003F   22152.34708873  .00008591  00000+0  29325-3 0  9997
2 43937  97.1307 186.3285 0020256 205.9682 154.0545 15.30358275187510
PSAT2 (NO-104)          
1 44354U 19036R   22152.44680615  .00068084 -50033-5  62874-3 0  9998
2 44354  28.5258 289.1705 0237137 150.1438 211.2922 15.37801670162218
JAISAT-1                
1 44419U 19038F   22152.67423118  .00005404  00000+0  27480-3 0  9993
2 44419  97.6351 122.6748 0019429 180.0109 180.1127 15.17121180160665
DUCHIFAT-3              
1 44854U 19089C   22152.80765362  .00003298  00000+0  25947-3 0  9992
2 44854  36.9659 193.0933 0007171  90.6063 269.5480 15.01000800135584
CAS-6 (TO-108)          
1 44881U 19093C   22152.77644110  .00000646  00000+0  88545-4 0  9998
2 44881  97.8923 232.2098 0013762 234.7044 125.2873 14.81713710132450
RS-44 & BREEZE-KM R/B   
1 44909U 19096E   22152.63283159  .00000029  00000+0  73342-4 0  9993
2 44909  82.5228 240.7832 0217195 357.0395   2.9404 12.79713183113486
ORBITAL FACTORY 2 (OF-2)
1 45113U 19071C   22152.65083503  .00017193  00000+0  36913-3 0  9999
2 45113  51.6363 137.0763 0010525 104.8964 255.3189 15.44748990130932
HUSKYSAT-1 (HO-107)     
1 45119U 19071J   22152.58292942  .00015466  00000+0  34260-3 0  9990
2 45119  51.6368 137.3489 0010374 102.0774 258.1375 15.43909487130917
BY70-2                  
1 45857U 20042B   22152.87325303  .00007839  00000+0  10499-2 0  9991
2 45857  97.9540 229.8630 0011649 160.2440 199.9122 14.79648349103151
SALSAT                  
1 46495U 20068K   22152.79943347  .00001490  00000+0  11082-3 0  9990
2 46495  97.7282  94.0961 0015897 335.4086  24.6380 15.04450410 91831
BY70-3                  
1 46839U 20079N   22152.80167147  .00022118  00000+0  52919-3 0  9996
2 46839  97.1984 225.1062 0006057  43.5096  64.1321 15.41456704 87833
RADFXSAT-2 (AO-109)     
1 47311U 21002C   22152.47259250  .00005929  00000+0  24547-3 0  9996
2 47311  60.6875  62.3950 0013287 318.4306  41.5771 15.25090955 76022
UVSQ-SAT                
1 47438U 21006AB  22152.89695297  .00004046  00000+0  21660-3 0  9993
2 47438  97.4376 212.2275 0010890 335.8457  24.2264 15.15547329 74922
DIY-1 (ARDUIQUBE)       
1 47963U 21022AH  22152.47624771  .00011069  00000+0  62659-3 0  9993
2 47963  97.5339  54.0261 0016984 179.9279 180.1958 15.13084849 64530
XW-3 (CAS-9)            
1 50466U 21131B   22152.86957302  .00000107  00000+0  49562-4 0  9998
2 50466  98.5804 230.1304 0004709 179.2219 180.8976 14.38495836 22678
TEVEL-3                 
1 50988U 22002E   22152.77235905  .00007922  00000+0  43622-3 0  9995
2 50988  97.4819 220.0179 0011326 117.7727 337.5737 15.14241492 21041
TEVEL-8                 
1 50989U 22002F   22152.77686762  .00007995  00000+0  44080-3 0  9996
2 50989  97.4833 220.0381 0011486 115.9197 339.0531 15.14190577 21047
TEVEL-5                 
1 50998U 22002Q   22152.79802683  .00007912  00000+0  42980-3 0  9996
2 50998  97.4817 220.1236 0012901 112.2898 343.0130 15.14707988 21051
TEVEL-6                 
1 50999U 22002R   22152.79773938  .00007944  00000+0  43147-3 0  9998
2 50999  97.4814 220.1207 0013014 112.6933 342.6754 15.14712079 21051
TEVEL-1                 
1 51013U 22002AF  22152.77440818  .00007955  00000+0  43831-3 0  9994
2 51013  97.4819 220.0061 0011157 117.2612 338.5873 15.14218255 21044
TEVEL-7                 
1 51062U 22002CG  22152.77851159  .00007999  00000+0  44116-3 0  9997
2 51062  97.4830 220.0299 0011306 115.6701 341.7646 15.14180231 21047
TEVEL-4                 
1 51063U 22002CH  22152.77889234  .00008049  00000+0  44398-3 0  9992
2 51063  97.4829 220.0282 0011339 115.3829 341.9992 15.14173474 21049
TEVEL-2                 
1 51069U 22002CP  22152.77326670  .00007968  00000+0  43880-3 0  9992
2 51069  97.4814 220.0095 0011247 116.8196 338.4610 15.14233928 21041
